[{"OBJECT_NAME":"STARLINK-4176","OBJECT_ID":"2022-086AZ","EPOCH":"2026-03-09T15:04:38.710848","MEAN_MOTION":15.08841695,"ECCENTRICITY":0.0001319,"INCLINATION":53.218,"RA_OF_ASC_NODE":179.5398,"ARG_OF_PERICENTER":90.207,"MEAN_ANOMALY":269.9073,"EPHEMERIS_TYPE":0,"CLASSIFICATION_TYPE":"U","NORAD_CAT_ID":53289,"ELEMENT_SET_NO":999,"REV_AT_EPOCH":20124,"BSTAR":6.6347e-5,"MEAN_MOTION_DOT":7.68e-6,"MEAN_MOTION_DDOT":0},{"OBJECT_NAME":"DMSP 5D-2 F14 DEB","OBJECT_ID":"1997-012R","EPOCH":"2026-03-09T22:53:23.097120","MEAN_MOTION":14.81560846,"ECCENTRICITY":0.01753616,"INCLINATION":98.3549,"RA_OF_ASC_NODE":137.9516,"ARG_OF_PERICENTER":248.8102,"MEAN_ANOMALY":109.4296,"EPHEMERIS_TYPE":0,"CLASSIFICATION_TYPE":"U","NORAD_CAT_ID":62945,"ELEMENT_SET_NO":999,"REV_AT_EPOCH":49672,"BSTAR":0.0018560597,"MEAN_MOTION_DOT":0.00019008,"MEAN_MOTION_DDOT":0}]
